{
  "type": "FeatureCollection",
  "features": [
    {
      "type": "Feature",
      "properties": {
        "norad_id": 15362,
        "name": "NOVA 3",
        "group": "nnss",
        "lat": 68.31676818157975,
        "lon": 80.28757218212547,
        "alt_km": 1174.7175811191146,
        "timestamp": "2025-12-17T21:39:45.956501+00:00",
        "meta_object_name": "NOVA 3",
        "meta_object_id": "1984-110A",
        "meta_epoch": "2025-12-17T12:17:57.699168",
        "meta_mean_motion": 13.23045067,
        "meta_eccentricity": 0.00301572,
        "meta_inclination": 90.1224,
        "meta_ra_of_asc_node": 80.591,
        "meta_arg_of_pericenter": 318.2807,
        "meta_mean_anomaly": 52.5968,
        "meta_ephemeris_type": 0,
        "meta_classification_type": "U",
        "meta_norad_cat_id": 15362,
        "meta_element_set_no": 999,
        "meta_rev_at_epoch": 98762,
        "meta_bstar": 0.00015188625,
        "meta_mean_motion_dot": 7.2e-07,
        "meta_mean_motion_ddot": 0,
        "tle_line1": "1 15362U 84110A   25351.51247337  .00000072  00000+0  15189-3 0  9994",
        "tle_line2": "2 15362  90.1224  80.5910 0030157 318.2807  52.5968 13.23045067987623"
      },
      "geometry": {
        "type": "Point",
        "coordinates": [
          80.28757218212547,
          68.31676818157975
        ]
      }
    },
    {
      "type": "Feature",
      "properties": {
        "norad_id": 15935,
        "name": "OSCAR 30",
        "group": "nnss",
        "lat": 29.391630301313594,
        "lon": 99.8382058715495,
        "alt_km": 1024.2833305504892,
        "timestamp": "2025-12-17T21:39:45.956510+00:00",
        "meta_object_name": "OSCAR 30",
        "meta_object_id": "1985-066A",
        "meta_epoch": "2025-12-17T14:23:25.993824",
        "meta_mean_motion": 13.36079102,
        "meta_eccentricity": 0.01693186,
        "meta_inclination": 90.1656,
        "meta_ra_of_asc_node": 99.9266,
        "meta_arg_of_pericenter": 70.3489,
        "meta_mean_anomaly": 303.7914,
        "meta_ephemeris_type": 0,
        "meta_classification_type": "U",
        "meta_norad_cat_id": 15935,
        "meta_element_set_no": 999,
        "meta_rev_at_epoch": 96518,
        "meta_bstar": 0.00011283828,
        "meta_mean_motion_dot": 7.3e-07,
        "meta_mean_motion_ddot": 0,
        "tle_line1": "1 15935U 85066A   25351.59960641  .00000073  00000+0  11284-3 0  9992",
        "tle_line2": "2 15935  90.1656  99.9266 0169318  70.3489 303.7914 13.36079102965180"
      },
      "geometry": {
        "type": "Point",
        "coordinates": [
          99.8382058715495,
          29.391630301313594
        ]
      }
    },
    {
      "type": "Feature",
      "properties": {
        "norad_id": 15936,
        "name": "OSCAR 24",
        "group": "nnss",
        "lat": 75.63739500116144,
        "lon": -86.90302319983846,
        "alt_km": 1004.4297664547303,
        "timestamp": "2025-12-17T21:39:45.956520+00:00",
        "meta_object_name": "OSCAR 24",
        "meta_object_id": "1985-066B",
        "meta_epoch": "2025-12-17T14:01:34.697568",
        "meta_mean_motion": 13.35936435,
        "meta_eccentricity": 0.01704091,
        "meta_inclination": 90.1792,
        "meta_ra_of_asc_node": 92.3911,
        "meta_arg_of_pericenter": 76.8208,
        "meta_mean_anomaly": 297.2201,
        "meta_ephemeris_type": 0,
        "meta_classification_type": "U",
        "meta_norad_cat_id": 15936,
        "meta_element_set_no": 999,
        "meta_rev_at_epoch": 96708,
        "meta_bstar": 8.5391917e-05,
        "meta_mean_motion_dot": 5.8e-07,
        "meta_mean_motion_ddot": 0,
        "tle_line1": "1 15936U 85066B   25351.58442937  .00000058  00000+0  85392-4 0  9990",
        "tle_line2": "2 15936  90.1792  92.3911 0170409  76.8208 297.2201 13.35936435967086"
      },
      "geometry": {
        "type": "Point",
        "coordinates": [
          -86.90302319983846,
          75.63739500116144
        ]
      }
    },
    {
      "type": "Feature",
      "properties": {
        "norad_id": 17070,
        "name": "POLAR BEAR",
        "group": "nnss",
        "lat": -51.108322593391094,
        "lon": -176.9079806273019,
        "alt_km": 1015.3197255435543,
        "timestamp": "2025-12-17T21:39:45.956529+00:00",
        "meta_object_name": "POLAR BEAR",
        "meta_object_id": "1986-088A",
        "meta_epoch": "2025-12-17T13:26:31.356096",
        "meta_mean_motion": 13.75251777,
        "meta_eccentricity": 0.00412006,
        "meta_inclination": 89.6171,
        "meta_ra_of_asc_node": 183.5808,
        "meta_arg_of_pericenter": 105.3442,
        "meta_mean_anomaly": 309.0213,
        "meta_ephemeris_type": 0,
        "meta_classification_type": "U",
        "meta_norad_cat_id": 17070,
        "meta_element_set_no": 999,
        "meta_rev_at_epoch": 96045,
        "meta_bstar": 0.0001101085,
        "meta_mean_motion_dot": 1.18e-06,
        "meta_mean_motion_ddot": 0,
        "tle_line1": "1 17070U 86088A   25351.56008514  .00000118  00000+0  11011-3 0  9996",
        "tle_line2": "2 17070  89.6171 183.5808 0041200 105.3442 309.0213 13.75251777960455"
      },
      "geometry": {
        "type": "Point",
        "coordinates": [
          -176.9079806273019,
          -51.108322593391094
        ]
      }
    },
    {
      "type": "Feature",
      "properties": {
        "norad_id": 18361,
        "name": "OSCAR 27",
        "group": "nnss",
        "lat": 3.8031029106621297,
        "lon": 79.44059765956713,
        "alt_km": 1163.2747054682604,
        "timestamp": "2025-12-17T21:39:45.956539+00:00",
        "meta_object_name": "OSCAR 27",
        "meta_object_id": "1987-080A",
        "meta_epoch": "2025-12-17T07:21:31.966272",
        "meta_mean_motion": 13.44907623,
        "meta_eccentricity": 0.01032691,
        "meta_inclination": 90.3742,
        "meta_ra_of_asc_node": 79.4432,
        "meta_arg_of_pericenter": 210.6095,
        "meta_mean_anomaly": 148.9002,
        "meta_ephemeris_type": 0,
        "meta_classification_type": "U",
        "meta_norad_cat_id": 18361,
        "meta_element_set_no": 999,
        "meta_rev_at_epoch": 87618,
        "meta_bstar": 0.00014727531,
        "meta_mean_motion_dot": 9.7e-07,
        "meta_mean_motion_ddot": 0,
        "tle_line1": "1 18361U 87080A   25351.30661998  .00000097  00000+0  14728-3 0  9990",
        "tle_line2": "2 18361  90.3742  79.4432 0103269 210.6095 148.9002 13.44907623876182"
      },
      "geometry": {
        "type": "Point",
        "coordinates": [
          79.44059765956713,
          3.8031029106621297
        ]
      }
    },
    {
      "type": "Feature",
      "properties": {
        "norad_id": 18362,
        "name": "OSCAR 29",
        "group": "nnss",
        "lat": 7.82588435795536,
        "lon": 79.87310319176548,
        "alt_km": 1149.9875504558868,
        "timestamp": "2025-12-17T21:39:45.956548+00:00",
        "meta_object_name": "OSCAR 29",
        "meta_object_id": "1987-080B",
        "meta_epoch": "2025-12-17T12:45:00.485568",
        "meta_mean_motion": 13.44449239,
        "meta_eccentricity": 0.0104189,
        "meta_inclination": 90.3753,
        "meta_ra_of_asc_node": 79.9108,
        "meta_arg_of_pericenter": 233.2547,
        "meta_mean_anomaly": 137.5214,
        "meta_ephemeris_type": 0,
        "meta_classification_type": "U",
        "meta_norad_cat_id": 18362,
        "meta_element_set_no": 999,
        "meta_rev_at_epoch": 87574,
        "meta_bstar": 0.00012815366,
        "meta_mean_motion_dot": 8.5e-07,
        "meta_mean_motion_ddot": 0,
        "tle_line1": "1 18362U 87080B   25351.53125562  .00000085  00000+0  12815-3 0  9990",
        "tle_line2": "2 18362  90.3753  79.9108 0104189 233.2547 137.5214 13.44449239875749"
      },
      "geometry": {
        "type": "Point",
        "coordinates": [
          79.87310319176548,
          7.82588435795536
        ]
      }
    },
    {
      "type": "Feature",
      "properties": {
        "norad_id": 19070,
        "name": "OSCAR 23",
        "group": "nnss",
        "lat": -14.349936481863187,
        "lon": -163.52939098977177,
        "alt_km": 1033.5171925237273,
        "timestamp": "2025-12-17T21:39:45.956558+00:00",
        "meta_object_name": "OSCAR 23",
        "meta_object_id": "1988-033A",
        "meta_epoch": "2025-12-17T15:51:37.554912",
        "meta_mean_motion": 13.27787939,
        "meta_eccentricity": 0.01899396,
        "meta_inclination": 90.3208,
        "meta_ra_of_asc_node": 16.5452,
        "meta_arg_of_pericenter": 166.2513,
        "meta_mean_anomaly": 311.9864,
        "meta_ephemeris_type": 0,
        "meta_classification_type": "U",
        "meta_norad_cat_id": 19070,
        "meta_element_set_no": 999,
        "meta_rev_at_epoch": 82318,
        "meta_bstar": 0.00016409771,
        "meta_mean_motion_dot": 9.1e-07,
        "meta_mean_motion_ddot": 0,
        "tle_line1": "1 19070U 88033A   25351.66085133  .00000091  00000+0  16410-3 0  9991",
        "tle_line2": "2 19070  90.3208  16.5452 0189939 166.2513 311.9864 13.27787939823187"
      },
      "geometry": {
        "type": "Point",
        "coordinates": [
          -163.52939098977177,
          -14.349936481863187
        ]
      }
    }
  ]
}